[{"OBJECT_NAME":"ONEWEB-0171","OBJECT_ID":"2021-025AE","EPOCH":"2025-07-30T20:29:06.446112","MEAN_MOTION":13.13469014,"ECCENTRICITY":0.0001811,"INCLINATION":87.8968,"RA_OF_ASC_NODE":24.0874,"ARG_OF_PERICENTER":87.8392,"MEAN_ANOMALY":272.2944,"EPHEMERIS_TYPE":0,"CLASSIFICATION_TYPE":"U","NORAD_CAT_ID":48070,"ELEMENT_SET_NO":999,"REV_AT_EPOCH":21143,"BSTAR":0.00058843,"MEAN_MOTION_DOT":2.28e-6,"MEAN_MOTION_DDOT":0},{"OBJECT_NAME":"ONEWEB-0172","OBJECT_ID":"2021-025AF","EPOCH":"2025-07-30T12:41:03.994944","MEAN_MOTION":13.13470721,"ECCENTRICITY":0.0001759,"INCLINATION":87.8967,"RA_OF_ASC_NODE":24.1184,"ARG_OF_PERICENTER":86.0607,"MEAN_ANOMALY":274.0723,"EPHEMERIS_TYPE":0,"CLASSIFICATION_TYPE":"U","NORAD_CAT_ID":48071,"ELEMENT_SET_NO":999,"REV_AT_EPOCH":21228,"BSTAR":0.00023496,"MEAN_MOTION_DOT":9.9e-7,"MEAN_MOTION_DDOT":0},{"OBJECT_NAME":"ONEWEB-0174","OBJECT_ID":"2021-025AG","EPOCH":"2025-07-30T12:14:13.999200","MEAN_MOTION":13.13468463,"ECCENTRICITY":0.0001654,"INCLINATION":87.8969,"RA_OF_ASC_NODE":24.1358,"ARG_OF_PERICENTER":94.2178,"MEAN_ANOMALY":265.914,"EPHEMERIS_TYPE":0,"CLASSIFICATION_TYPE":"U","NORAD_CAT_ID":48072,"ELEMENT_SET_NO":999,"REV_AT_EPOCH":21160,"BSTAR":-0.0015424,"MEAN_MOTION_DOT":-5.5e-6,"MEAN_MOTION_DDOT":0},{"OBJECT_NAME":"ONEWEB-0175","OBJECT_ID":"2021-025AH","EPOCH":"2025-07-30T20:16:54.809184","MEAN_MOTION":13.13469758,"ECCENTRICITY":0.0001983,"INCLINATION":87.8961,"RA_OF_ASC_NODE":24.034,"ARG_OF_PERICENTER":83.1413,"MEAN_ANOMALY":276.9942,"EPHEMERIS_TYPE":0,"CLASSIFICATION_TYPE":"U","NORAD_CAT_ID":48073,"ELEMENT_SET_NO":999,"REV_AT_EPOCH":21130,"BSTAR":0.00069989,"MEAN_MOTION_DOT":2.68e-6,"MEAN_MOTION_DDOT":0},{"OBJECT_NAME":"ONEWEB-0177","OBJECT_ID":"2021-025AJ","EPOCH":"2025-07-30T11:25:29.164800","MEAN_MOTION":13.13468629,"ECCENTRICITY":0.0001554,"INCLINATION":87.8969,"RA_OF_ASC_NODE":24.1224,"ARG_OF_PERICENTER":90.7692,"MEAN_ANOMALY":269.3615,"EPHEMERIS_TYPE":0,"CLASSIFICATION_TYPE":"U","NORAD_CAT_ID":48074,"ELEMENT_SET_NO":999,"REV_AT_EPOCH":21144,"BSTAR":0.00096811,"MEAN_MOTION_DOT":3.66e-6,"MEAN_MOTION_DDOT":0},{"OBJECT_NAME":"ONEWEB-0178","OBJECT_ID":"2021-025AK","EPOCH":"2025-07-30T11:52:30.310464","MEAN_MOTION":13.13470098,"ECCENTRICITY":0.000173,"INCLINATION":87.8971,"RA_OF_ASC_NODE":24.1639,"ARG_OF_PERICENTER":81.1664,"MEAN_ANOMALY":278.9661,"EPHEMERIS_TYPE":0,"CLASSIFICATION_TYPE":"U","NORAD_CAT_ID":48075,"ELEMENT_SET_NO":999,"REV_AT_EPOCH":21149,"BSTAR":-0.00036838,"MEAN_MOTION_DOT":-1.22e-6,"MEAN_MOTION_DDOT":0},{"OBJECT_NAME":"ONEWEB-0108","OBJECT_ID":"2021-025AL","EPOCH":"2025-07-30T12:43:29.959968","MEAN_MOTION":13.13469808,"ECCENTRICITY":0.0001896,"INCLINATION":87.8964,"RA_OF_ASC_NODE":24.1056,"ARG_OF_PERICENTER":98.2015,"MEAN_ANOMALY":261.9329,"EPHEMERIS_TYPE":0,"CLASSIFICATION_TYPE":"U","NORAD_CAT_ID":48076,"ELEMENT_SET_NO":999,"REV_AT_EPOCH":21142,"BSTAR":0.00029121,"MEAN_MOTION_DOT":1.19e-6,"MEAN_MOTION_DDOT":0},{"OBJECT_NAME":"ONEWEB-0169","OBJECT_ID":"2021-025AM","EPOCH":"2025-07-30T11:40:07.629888","MEAN_MOTION":13.13471129,"ECCENTRICITY":0.0001874,"INCLINATION":87.8968,"RA_OF_ASC_NODE":24.1361,"ARG_OF_PERICENTER":98.1621,"MEAN_ANOMALY":261.9721,"EPHEMERIS_TYPE":0,"CLASSIFICATION_TYPE":"U","NORAD_CAT_ID":48077,"ELEMENT_SET_NO":999,"REV_AT_EPOCH":21007,"BSTAR":0.00074577,"MEAN_MOTION_DOT":2.85e-6,"MEAN_MOTION_DDOT":0},{"OBJECT_NAME":"ONEWEB-0176","OBJECT_ID":"2021-031A","EPOCH":"2025-07-30T19:25:57.451872","MEAN_MOTION":13.14489801,"ECCENTRICITY":0.000137,"INCLINATION":87.9129,"RA_OF_ASC_NODE":353.6489,"ARG_OF_PERICENTER":79.293,"MEAN_ANOMALY":280.8354,"EPHEMERIS_TYPE":0,"CLASSIFICATION_TYPE":"U","NORAD_CAT_ID":48210,"ELEMENT_SET_NO":999,"REV_AT_EPOCH":20738,"BSTAR":0.011849,"MEAN_MOTION_DOT":4.407e-5,"MEAN_MOTION_DDOT":0},{"OBJECT_NAME":"ONEWEB-0184","OBJECT_ID":"2021-031B","EPOCH":"2025-07-30T15:07:55.714944","MEAN_MOTION":13.14502457,"ECCENTRICITY":0.0002141,"INCLINATION":87.9069,"RA_OF_ASC_NODE":353.6555,"ARG_OF_PERICENTER":72.0857,"MEAN_ANOMALY":288.0506,"EPHEMERIS_TYPE":0,"CLASSIFICATION_TYPE":"U","NORAD_CAT_ID":48211,"ELEMENT_SET_NO":999,"REV_AT_EPOCH":20604,"BSTAR":0.00031897,"MEAN_MOTION_DOT":1.31e-6,"MEAN_MOTION_DDOT":0},{"OBJECT_NAME":"ONEWEB-0179","OBJECT_ID":"2021-031C","EPOCH":"2025-07-30T10:46:27.415488","MEAN_MOTION":13.14502367,"ECCENTRICITY":0.0001728,"INCLINATION":87.9066,"RA_OF_ASC_NODE":353.7095,"ARG_OF_PERICENTER":97.4828,"MEAN_ANOMALY":262.6498,"EPHEMERIS_TYPE":0,"CLASSIFICATION_TYPE":"U","NORAD_CAT_ID":48212,"ELEMENT_SET_NO":999,"REV_AT_EPOCH":20606,"BSTAR":0.0003019,"MEAN_MOTION_DOT":1.25e-6,"MEAN_MOTION_DDOT":0},{"OBJECT_NAME":"ONEWEB-0180","OBJECT_ID":"2021-031D","EPOCH":"2025-07-30T15:12:30.047904","MEAN_MOTION":13.14496831,"ECCENTRICITY":0.0001555,"INCLINATION":87.9068,"RA_OF_ASC_NODE":353.66,"ARG_OF_PERICENTER":89.5892,"MEAN_ANOMALY":270.5416,"EPHEMERIS_TYPE":0,"CLASSIFICATION_TYPE":"U","NORAD_CAT_ID":48213,"ELEMENT_SET_NO":999,"REV_AT_EPOCH":20597,"BSTAR":0.0024405,"MEAN_MOTION_DOT":9.18e-6,"MEAN_MOTION_DDOT":0},{"OBJECT_NAME":"ONEWEB-0218","OBJECT_ID":"2021-031E","EPOCH":"2025-07-30T10:15:37.920672","MEAN_MOTION":13.14504257,"ECCENTRICITY":0.0001937,"INCLINATION":87.9066,"RA_OF_ASC_NODE":353.7016,"ARG_OF_PERICENTER":67.2982,"MEAN_ANOMALY":292.8352,"EPHEMERIS_TYPE":0,"CLASSIFICATION_TYPE":"U","NORAD_CAT_ID":48214,"ELEMENT_SET_NO":999,"REV_AT_EPOCH":20610,"BSTAR":-0.00052811,"MEAN_MOTION_DOT":-1.83e-6,"MEAN_MOTION_DDOT":0},{"OBJECT_NAME":"ONEWEB-0209","OBJECT_ID":"2021-031F","EPOCH":"2025-07-30T09:59:38.412384","MEAN_MOTION":13.14503918,"ECCENTRICITY":0.000162,"INCLINATION":87.907,"RA_OF_ASC_NODE":353.7477,"ARG_OF_PERICENTER":97.097,"MEAN_ANOMALY":263.0344,"EPHEMERIS_TYPE":0,"CLASSIFICATION_TYPE":"U","NORAD_CAT_ID":48215,"ELEMENT_SET_NO":999,"REV_AT_EPOCH":20610,"BSTAR":-0.00033329,"MEAN_MOTION_DOT":-1.11e-6,"MEAN_MOTION_DDOT":0},{"OBJECT_NAME":"ONEWEB-0198","OBJECT_ID":"2021-031G","EPOCH":"2025-07-30T15:05:38.113440","MEAN_MOTION":13.14499546,"ECCENTRICITY":0.0001548,"INCLINATION":87.9067,"RA_OF_ASC_NODE":353.707,"ARG_OF_PERICENTER":82.5821,"MEAN_ANOMALY":277.5485,"EPHEMERIS_TYPE":0,"CLASSIFICATION_TYPE":"U","NORAD_CAT_ID":48216,"ELEMENT_SET_NO":999,"REV_AT_EPOCH":20624,"BSTAR":0.00033074,"MEAN_MOTION_DOT":1.35e-6,"MEAN_MOTION_DDOT":0},{"OBJECT_NAME":"ONEWEB-0189","OBJECT_ID":"2021-031H","EPOCH":"2025-07-30T15:23:54.805056","MEAN_MOTION":13.14501613,"ECCENTRICITY":0.0001608,"INCLINATION":87.9066,"RA_OF_ASC_NODE":353.678,"ARG_OF_PERICENTER":84.86,"MEAN_ANOMALY":275.2713,"EPHEMERIS_TYPE":0,"CLASSIFICATION_TYPE":"U","NORAD_CAT_ID":48217,"ELEMENT_SET_NO":999,"REV_AT_EPOCH":20598,"BSTAR":-0.00020012,"MEAN_MOTION_DOT":-6.1e-7,"MEAN_MOTION_DDOT":0},{"OBJECT_NAME":"ONEWEB-0196","OBJECT_ID":"2021-031J","EPOCH":"2025-07-30T20:20:46.739616","MEAN_MOTION":13.14496556,"ECCENTRICITY":0.0001705,"INCLINATION":87.9073,"RA_OF_ASC_NODE":353.6493,"ARG_OF_PERICENTER":93.2083,"MEAN_ANOMALY":266.9242,"EPHEMERIS_TYPE":0,"CLASSIFICATION_TYPE":"U","NORAD_CAT_ID":48218,"ELEMENT_SET_NO":999,"REV_AT_EPOCH":20600,"BSTAR":-0.0021376,"MEAN_MOTION_DOT":-7.8e-6,"MEAN_MOTION_DDOT":0}]
