ONEWEB-0171             
1 48070U 21025AE  25211.85354683  .00000228  00000+0  58843-3 0  9994
2 48070  87.8968  24.0874 0001811  87.8392 272.2944 13.13469014211433
ONEWEB-0172             
1 48071U 21025AF  25211.52851846  .00000099  00000+0  23496-3 0  9994
2 48071  87.8967  24.1184 0001759  86.0607 274.0723 13.13470721212285
ONEWEB-0174             
1 48072U 21025AG  25211.50988425 -.00000550  00000+0 -15424-2 0  9992
2 48072  87.8969  24.1358 0001654  94.2178 265.9140 13.13468463211606
ONEWEB-0175             
1 48073U 21025AH  25211.84507881  .00000268  00000+0  69989-3 0  9993
2 48073  87.8961  24.0340 0001983  83.1413 276.9942 13.13469758211300
ONEWEB-0177             
1 48074U 21025AJ  25211.47603200  .00000366  00000+0  96811-3 0  9998
2 48074  87.8969  24.1224 0001554  90.7692 269.3615 13.13468629211442
ONEWEB-0178             
1 48075U 21025AK  25211.49479526 -.00000122  00000+0 -36838-3 0  9998
2 48075  87.8971  24.1639 0001730  81.1664 278.9661 13.13470098211490
ONEWEB-0108             
1 48076U 21025AL  25211.53020787  .00000119  00000+0  29121-3 0  9996
2 48076  87.8964  24.1056 0001896  98.2015 261.9329 13.13469808211421
ONEWEB-0169             
1 48077U 21025AM  25211.48619942  .00000285  00000+0  74577-3 0  9997
2 48077  87.8968  24.1361 0001874  98.1621 261.9721 13.13471129210078
ONEWEB-0176             
1 48210U 21031A   25211.80969273  .00004407  00000+0  11849-1 0  9995
2 48210  87.9129 353.6489 0001370  79.2930 280.8354 13.14489801207381
ONEWEB-0184             
1 48211U 21031B   25211.63050596  .00000131  00000+0  31897-3 0  9993
2 48211  87.9069 353.6555 0002141  72.0857 288.0506 13.14502457206049
ONEWEB-0179             
1 48212U 21031C   25211.44892842  .00000125  00000+0  30190-3 0  9999
2 48212  87.9066 353.7095 0001728  97.4828 262.6498 13.14502367206066
ONEWEB-0180             
1 48213U 21031D   25211.63368111  .00000918  00000+0  24405-2 0  9999
2 48213  87.9068 353.6600 0001555  89.5892 270.5416 13.14496831205976
ONEWEB-0218             
1 48214U 21031E   25211.42752223 -.00000183  00000+0 -52811-3 0  9997
2 48214  87.9066 353.7016 0001937  67.2982 292.8352 13.14504257206108
ONEWEB-0209             
1 48215U 21031F   25211.41641681 -.00000111  00000+0 -33329-3 0  9996
2 48215  87.9070 353.7477 0001620  97.0970 263.0344 13.14503918206106
ONEWEB-0198             
1 48216U 21031G   25211.62891335  .00000135  00000+0  33074-3 0  9994
2 48216  87.9067 353.7070 0001548  82.5821 277.5485 13.14499546206247
ONEWEB-0189             
1 48217U 21031H   25211.64160654 -.00000061  00000+0 -20012-3 0  9998
2 48217  87.9066 353.6780 0001608  84.8600 275.2713 13.14501613205989
ONEWEB-0196             
1 48218U 21031J   25211.84776319 -.00000780  00000+0 -21376-2 0  9993
2 48218  87.9073 353.6493 0001705  93.2083 266.9242 13.14496556206003
